0 OPS 9321 (IDSCS 8)
1 02645U 67003A   13279.46474028 -.00000059  00000-0  10000-3 0  9708
2 02645 000.8465 003.7098 0039767 071.9710 284.7870 01.08316406184239
0 OPS 9321 (IDSCS 8)
1 02645U 67003A   13286.85026627 -.00000106  00000-0  10000-3 0  9711
2 02645 000.8487 003.7784 0039892 072.1153 284.5640 01.08317008184319
0 OPS 9321 (IDSCS 8)
1 02645U 67003A   13289.61984096 -.00000119  00000-0  10000-3 0  9726
2 02645 000.8501 003.7295 0039628 072.4309 284.2939 01.08317083184340
0 OPS 9321 (IDSCS 8)
1 02645U 67003A   13292.38945477 -.00000080  00000-0  10000-3 0  9732
2 02645 000.8520 003.6941 0039399 072.6061 284.1577 01.08316540184377
